{"fetched_at":"2026-03-29T02:12:04Z","count":15717,"tles":[{"name":"BEIDOU-3 M11 (C25)","line1":"1 43603U 18067B   26084.81520604 -.00000020  00000+0  00000+0 0  9995","line2":"2 43603  54.1779 183.8314 0004691  29.2398 330.7997  1.86227158 51590","category":"GPS"}]}