{
  "norad_id": 43603,
  "name": "BEIDOU-3 M11",
  "history": [
    {
      "epoch": "2026-03-25T19:33:53.801856Z",
      "apogee_km": 21541.526352141103,
      "perigee_km": 21515.34440593509,
      "latitude_deg": -1.5532453574063805e-06,
      "longitude_deg": 67.08319588682505,
      "height_km": 21517.258762729678,
      "semi_major_axis_km": 27906.572379038098,
      "eccentricity": 0.0004691,
      "inclination_deg": 54.1779,
      "raan_deg": 183.8314,
      "arg_perigee_deg": 29.2398,
      "mean_anomaly_deg": 330.7997,
      "mean_motion_rev_day": 1.86227158
    }
  ]
}